NORAD_CAT_ID,OBJECT_NAME,OBJECT_TYPE,EPOCH,MEAN_MOTION,ECCENTRICITY,INCLINATION,RA_OF_ASC_NODE,ARG_OF_PERICENTER,MEAN_ANOMALY,BSTAR,MEAN_MOTION_DOT,MEAN_MOTION_DDOT,TLE_LINE0,TLE_LINE1,TLE_LINE2,SEMIMAJOR_AXIS,PERIOD,APOGEE,PERIGEE,DECAYED
55651.0,STARLINK-5506,PAYLOAD,2023-05-15 12:11:50,15.69918869,0.0003618,69.999,266.0729,274.6724,85.4058,-1.193e-06,-3.56e-06,0.0,0 STARLINK-5506,1 55651U 23021Z   23135.50822777 -.00000356  00000-0 -11930-5 0  9997,2 55651  69.9990 266.0729 0003618 274.6724  85.4058 15.69918869 14465,6737.266,91.724,361.569,356.694,0.0
55651.0,STARLINK-5506,PAYLOAD,2023-05-15 16:47:05,15.69922784,0.0002655,69.9995,265.536,253.6575,106.4329,9.8751e-06,9.75e-06,0.0,0 STARLINK-5506,1 55651U 23021Z   23135.69937295  .00000975  00000-0  98751-5 0  9990,2 55651  69.9995 265.5360 0002655 253.6575 106.4329 15.69922784 14192,6737.255,91.724,360.909,357.331,0.0
55651.0,STARLINK-5506,PAYLOAD,2023-05-16 11:08:07,15.69923453,0.0003384,69.9988,263.3855,277.2318,82.8492,4.1773e-06,2.9e-06,0.0,0 STARLINK-5506,1 55651U 23021Z   23136.46397656  .00000290  00000-0  41773-5 0  9999,2 55651  69.9988 263.3855 0003384 277.2318  82.8492 15.69923453 14615,6737.253,91.724,361.398,356.838,0.0
55651.0,STARLINK-5506,PAYLOAD,2023-05-16 18:46:52,15.6992634,0.0003137,69.999,262.4898,276.6155,83.4683,1.294e-05,1.344e-05,0.0,0 STARLINK-5506,1 55651U 23021Z   23136.78255651  .00001344  00000-0  12940-4 0  9996,2 55651  69.9990 262.4898 0003137 276.6155  83.4683 15.69926340 14362,6737.245,91.724,361.223,356.996,0.0
55651.0,STARLINK-5506,PAYLOAD,2023-05-17 10:04:24,15.69918729,0.0002772,69.9998,260.6978,263.5567,96.5313,1.0537e-05,1.054e-05,0.0,0 STARLINK-5506,1 55651U 23021Z   23137.41972930  .00001054  00000-0  10537-4 0  9991,2 55651  69.9998 260.6978 0002772 263.5567  96.5313 15.69918729 14463,6737.267,91.724,360.999,357.264,0.0
55651.0,STARLINK-5506,PAYLOAD,2023-05-17 17:43:09,15.69927087,0.0003132,69.9989,259.8018,278.5689,81.5151,6.245e-06,5.38e-06,0.0,0 STARLINK-5506,1 55651U 23021Z   23137.73830881  .00000538  00000-0  62450-5 0  9992,2 55651  69.9989 259.8018 0003132 278.5689  81.5151 15.69927087 14517,6737.243,91.724,361.218,356.997,0.0
55651.0,STARLINK-5506,PAYLOAD,2023-05-18 10:32:26,15.6992295,0.0002736,69.9997,257.8322,259.7796,100.3091,7.4347e-06,6.82e-06,0.0,0 STARLINK-5506,1 55651U 23021Z   23138.43919501  .00000682  00000-0  74347-5 0  9995,2 55651  69.9997 257.8322 0002736 259.7796 100.3091 15.69922950 14923,6737.254,91.724,360.963,357.276,0.0
55651.0,STARLINK-5506,PAYLOAD,2023-05-18 18:11:11,15.69925772,0.0002798,69.9991,256.936,264.5846,95.503,9.6637e-06,9.5e-06,0.0,0 STARLINK-5506,1 55651U 23021Z   23138.75777661  .00000950  00000-0  96637-5 0  9993,2 55651  69.9991 256.9360 0002798 264.5846  95.5030 15.69925772 14975,6737.246,91.724,360.996,357.226,0.0
55651.0,STARLINK-5506,PAYLOAD,2023-05-19 09:29:02,15.69665775,0.0003829,69.9992,255.1459,272.2448,87.8309,-0.00028579,-0.00034077,0.0,0 STARLINK-5506,1 55651U 23021Z   23139.39517173 -.00034077  00000-0 -28579-3 0  9991,2 55651  69.9992 255.1459 0003829 272.2448  87.8309 15.69665775 14771,6737.99,91.739,362.435,357.275,0.0
55651.0,STARLINK-5506,PAYLOAD,2023-05-19 11:02:20,15.68392241,0.0003869,69.999,254.972,124.5606,235.5955,-0.0017751,-0.00196028,0.0,0 STARLINK-5506,1 55651U 23021Z   23139.45995436 -.00196028  00000-0 -17751-2 0  9994,2 55651  69.9990 254.9720 0003869 124.5606 235.5955 15.68392241 14780,6741.637,91.814,366.111,360.894,0.0
55651.0,STARLINK-5506,PAYLOAD,2023-05-20 06:00:00,15.67687525,0.0003325,70.0016,252.7464,266.7518,239.8346,-0.0090272,-0.00904073,0.0,0 STARLINK-5506,1 55651U 23021Z   23140.25001157 -.00904073  00000-0 -90272-2 0  9998,2 55651  70.0016 252.7464 0003325 266.7518 239.8346 15.67687525 14907,6743.658,91.855,367.765,363.28,0.0
55651.0,STARLINK-5506,PAYLOAD,2023-05-20 22:00:01,15.66400551,0.0003537,70.0012,250.8801,272.3053,34.0749,-0.010097,-0.00954715,0.0,0 STARLINK-5506,1 55651U 23021Z   23140.91668981 -.00954715  00000-0 -10097-1 0  9999,2 55651  70.0012 250.8801 0003537 272.3053  34.0749 15.66400551 15004,6747.351,91.931,371.602,366.829,0.0
55651.0,STARLINK-5506,PAYLOAD,2023-05-21 12:02:31,15.66807305,0.0003191,69.9972,249.2488,263.0893,96.9938,-0.0024858,-0.00255465,0.0,0 STARLINK-5506,1 55651U 23021Z   23141.50174783 -.00255465  00000-0 -24858-2 0  9994,2 55651  69.9972 249.2488 0003191 263.0893  96.9938 15.66807305 15403,6746.183,91.907,370.201,365.895,0.0
55651.0,STARLINK-5506,PAYLOAD,2023-05-21 14:00:01,15.65059615,0.0003708,70.0016,249.0178,274.2148,188.7135,-0.0099276,-0.0089502,0.0,0 STARLINK-5506,1 55651U 23021Z   23141.58334491 -.00895020  00000-0 -99276-2 0  9999,2 55651  70.0016 249.0178 0003708 274.2148 188.7135 15.65059615 15119,6751.204,92.009,375.573,370.566,0.0
55651.0,STARLINK-5506,PAYLOAD,2023-05-22 00:00:00,15.64253816,0.0003629,70.0011,247.8554,270.0915,19.1152,-0.010446,-0.00910499,0.0,0 STARLINK-5506,1 55651U 23021Z   23142.00001157 -.00910499  00000-0 -10446-1 0  9996,2 55651  70.0011 247.8554 0003629 270.0915  19.1152 15.64253816  1306,6753.523,92.057,377.838,372.937,0.0
55651.0,STARLINK-5506,PAYLOAD,2023-05-22 06:00:02,15.63783113,0.0003597,70.0011,247.1588,266.0272,350.4162,-0.010759,-0.00919562,0.0,0 STARLINK-5506,1 55651U 23021Z   23142.25002315 -.00919562  00000-0 -10759-1 0  9997,2 55651  70.0011 247.1588 0003597 266.0272 350.4162 15.63783113 15215,6754.878,92.084,379.173,374.313,0.0
55651.0,STARLINK-5506,PAYLOAD,2023-05-22 09:31:36,15.64999777,0.0003978,69.9975,246.754,288.2218,71.8541,-0.0024438,-0.00234263,0.0,0 STARLINK-5506,1 55651U 23021Z   23142.39695418 -.00234263  00000-0 -24438-2 0  9992,2 55651  69.9975 246.7540 0003978 288.2218  71.8541 15.64999777 15540,6751.376,92.013,375.927,370.556,0.0
55651.0,STARLINK-5506,PAYLOAD,2023-05-22 22:00:00,15.62484816,0.0003554,70.0005,245.3035,273.8663,132.8565,-0.011738,-0.00950184,0.0,0 STARLINK-5506,1 55651U 23021Z   23142.91667824 -.00950184  00000-0 -11738-1 0  9995,2 55651  70.0005 245.3035 0003554 273.8663 132.8565 15.62484816  1309,6758.619,92.161,382.886,378.082,0.0
55651.0,STARLINK-5506,PAYLOAD,2023-05-23 06:00:00,15.61833299,0.0003349,70.001,244.3773,269.6444,211.0694,-0.011762,-0.009301,0.0,0 STARLINK-5506,1 55651U 23021Z   23143.25001157 -.00930100  00000-0 -11762-1 0  9997,2 55651  70.0010 244.3773 0003349 269.6444 211.0694 15.61833299 15372,6760.499,92.199,384.628,380.099,0.0
55651.0,STARLINK-5506,PAYLOAD,2023-05-23 22:00:00,15.60529504,0.0003346,70.0003,242.5274,272.3449,354.0215,-0.012734,-0.00954865,0.0,0 STARLINK-5506,1 55651U 23021Z   23143.91667824 -.00954865  00000-0 -12734-1 0  9993,2 55651  70.0003 242.5274 0003346 272.3449 354.0215 15.60529504  1308,6764.264,92.276,388.392,383.865,0.0
55651.0,STARLINK-5506,PAYLOAD,2023-05-24 14:00:01,15.59177503,0.0003366,70.0003,240.6811,275.319,133.6421,-0.012031,-0.00864837,0.0,0 STARLINK-5506,1 55651U 23021Z   23144.58335648 -.00864837  00000-0 -12031-1 0  9992,2 55651  70.0003 240.6811 0003366 275.3190 133.6421 15.59177503 15583,6768.173,92.356,392.316,387.76,0.0
55651.0,STARLINK-5506,PAYLOAD,2023-05-24 22:00:00,15.58560715,0.000321,70.0,239.7594,272.1741,206.7989,-0.013394,-0.00933605,0.0,0 STARLINK-5506,1 55651U 23021Z   23144.91667824 -.00933605  00000-0 -13394-1 0  9996,2 55651  70.0000 239.7594 0003210 272.1741 206.7989 15.58560715  1308,6769.959,92.393,393.997,389.651,0.0
55651.0,STARLINK-5506,PAYLOAD,2023-05-25 06:00:00,15.57925722,0.000326,70.0005,238.8389,264.8177,283.4466,-0.013854,-0.00941927,0.0,0 STARLINK-5506,1 55651U 23021Z   23145.25001157 -.00941927  00000-0 -13854-1 0  9992,2 55651  70.0005 238.8389 0003260 264.8177 283.4466 15.57925722 15681,6771.798,92.431,395.871,391.456,0.0
55651.0,STARLINK-5506,PAYLOAD,2023-05-25 14:00:01,15.57226089,0.0003332,70.0002,237.9189,270.4508,346.3522,-0.013084,-0.00872902,0.0,0 STARLINK-5506,1 55651U 23021Z   23145.58334491 -.00872902  00000-0 -13084-1 0  9999,2 55651  70.0002 237.9189 0003332 270.4508 346.3522 15.57226089  1303,6773.826,92.472,397.948,393.434,0.0
55651.0,STARLINK-5506,PAYLOAD,2023-05-26 00:00:02,15.56399166,0.0003395,70.0,236.7699,269.5118,161.9124,-0.013257,-0.00858829,0.0,0 STARLINK-5506,1 55651U 23021Z   23146.00002315 -.00858829  00000-0 -13257-1 0  9998,2 55651  70.0000 236.7699 0003395 269.5118 161.9124 15.56399166  1304,6776.225,92.521,400.391,395.79,0.0
55651.0,STARLINK-5506,PAYLOAD,2023-05-26 06:00:00,15.55967451,0.000345,70.0001,236.0814,267.0508,124.4298,-0.014847,-0.00938482,0.0,0 STARLINK-5506,1 55651U 23021Z   23146.25001157 -.00938482  00000-0 -14847-1 0  9998,2 55651  70.0001 236.0814 0003450 267.0508 124.4298 15.55967451 15842,6777.479,92.547,401.682,397.006,0.0
55651.0,STARLINK-5506,PAYLOAD,2023-05-26 14:00:01,15.55271806,0.0003307,70.0002,235.164,274.1552,183.5157,-0.014151,-0.00877417,0.0,0 STARLINK-5506,1 55651U 23021Z   23146.58334491 -.00877417  00000-0 -14151-1 0  9992,2 55651  70.0002 235.1640 0003307 274.1552 183.5157 15.55271806  1307,6779.5,92.588,403.607,399.123,0.0
55651.0,STARLINK-5506,PAYLOAD,2023-05-26 22:00:01,15.54637469,0.0003208,69.9999,234.2474,271.2345,251.8896,-0.015213,-0.00917469,0.0,0 STARLINK-5506,1 55651U 23021Z   23146.91668981 -.00917469  00000-0 -15213-1 0  9995,2 55651  69.9999 234.2474 0003208 271.2345 251.8896 15.54637469  1301,6781.344,92.626,405.384,401.033,0.0
55651.0,STARLINK-5506,PAYLOAD,2023-05-27 06:00:02,15.54013206,0.0003303,70.0001,233.3322,265.4527,322.266,-0.015992,-0.00940312,0.0,0 STARLINK-5506,1 55651U 23021Z   23147.25002315 -.00940312  00000-0 -15992-1 0  9993,2 55651  70.0001 233.3322 0003303 265.4527 322.2660 15.54013206 15992,6783.16,92.663,407.265,402.784,0.0
55651.0,STARLINK-5506,PAYLOAD,2023-05-27 22:00:00,15.52675297,0.0003517,69.9999,231.5037,271.5462,82.9971,-0.016193,-0.00909916,0.0,0 STARLINK-5506,1 55651U 23021Z   23147.91667824 -.00909916  00000-0 -16193-1 0  9997,2 55651  69.9999 231.5037 0003517 271.5462  82.9971 15.52675297  1308,6787.056,92.743,411.308,406.534,0.0
